[{"OBJECT_NAME":"OPS 5712 (P\/L 160)","OBJECT_ID":"1967-053A","EPOCH":"2026-03-09T23:15:46.773504","MEAN_MOTION":14.76189959,"ECCENTRICITY":0.000418,"INCLINATION":69.9166,"RA_OF_ASC_NODE":281.2067,"ARG_OF_PERICENTER":223.4883,"MEAN_ANOMALY":136.5935,"EPHEMERIS_TYPE":0,"CLASSIFICATION_TYPE":"U","NORAD_CAT_ID":2826,"ELEMENT_SET_NO":999,"REV_AT_EPOCH":5158,"BSTAR":0.0012899504,"MEAN_MOTION_DOT":8.87e-5,"MEAN_MOTION_DDOT":0},{"OBJECT_NAME":"CZ-4 DEB","OBJECT_ID":"2007-042C","EPOCH":"2026-03-09T11:37:17.780448","MEAN_MOTION":14.62477684,"ECCENTRICITY":0.00878986,"INCLINATION":97.9604,"RA_OF_ASC_NODE":80.2388,"ARG_OF_PERICENTER":186.0336,"MEAN_ANOMALY":173.9815,"EPHEMERIS_TYPE":0,"CLASSIFICATION_TYPE":"U","NORAD_CAT_ID":32473,"ELEMENT_SET_NO":999,"REV_AT_EPOCH":96414,"BSTAR":0.00068289684,"MEAN_MOTION_DOT":3.609e-5,"MEAN_MOTION_DDOT":0}]
